start=new Date('2021-11-07T00:00:00.000Z').valueOf();
sats=[{"MEAN_ANOMALY":"267.6460","DECAY_DATE":null,"PERIOD":"95.475","LAUNCH_DATE":"2020-10-24","REF_FRAME":"TEME","OBJECT_ID":"2020-074AM","MEAN_MOTION_DDOT":"0.0000000000000","TIME_SYSTEM":"UTC","EPOCH":"2021-11-06T05:17:05.748288","SITE":"AFETR","APOAPSIS":"542.684","TLE_LINE1":"1 46774U 20074AM  21310.22020542  .00007065  00000-0  46889-3 0  9991","ECCENTRICITY":"0.00016530","CLASSIFICATION_TYPE":"U","ARG_OF_PERICENTER":"92.4719","BSTAR":"0.00046889000000","OBJECT_NAME":"STARLINK-1939","SEMIMAJOR_AXIS":"6919.675","ELEMENT_SET_NO":"999","REV_AT_EPOCH":"5767","COUNTRY_CODE":"US","FILE":"3206165","PERIAPSIS":"540.396","MEAN_ELEMENT_THEORY":"SGP4","EPHEMERIS_TYPE":"0","RA_OF_ASC_NODE":"248.3406","CENTER_NAME":"EARTH","TLE_LINE2":"2 46774  53.0532 248.3406 0001653  92.4719 267.6460 15.08253122 57677","MEAN_MOTION_DOT":"0.00007065","INCLINATION":"53.0532","OBJECT_TYPE":"PAYLOAD","MEAN_MOTION":"15.08253122","RCS_SIZE":"LARGE","NORAD_CAT_ID":"46774","GP_ID":"189130793"},{"OBJECT_ID":"2020-074AN","MEAN_MOTION_DDOT":"0.0000000000000","DECAY_DATE":null,"LAUNCH_DATE":"2020-10-24","REF_FRAME":"TEME","PERIOD":"93.514","MEAN_ANOMALY":"305.3581","CLASSIFICATION_TYPE":"U","ARG_OF_PERICENTER":"54.7593","SITE":"AFETR","EPOCH":"2021-11-06T07:19:47.392032","TIME_SYSTEM":"UTC","ECCENTRICITY":"0.00018160","TLE_LINE1":"1 46775U 20074AN  21310.30540963  .00376539  00000-0  88916-2 0  9996","APOAPSIS":"447.725","MEAN_ELEMENT_THEORY":"SGP4","PERIAPSIS":"445.247","FILE":"3206165","COUNTRY_CODE":"US","REV_AT_EPOCH":"5769","MEAN_MOTION_DOT":"0.00376539","TLE_LINE2":"2 46775  53.0590 246.5876 0001816  54.7593 305.3581 15.39873198 57696","CENTER_NAME":"EARTH","EPHEMERIS_TYPE":"0","RA_OF_ASC_NODE":"246.5876","BSTAR":"0.00889160000000","ELEMENT_SET_NO":"999","SEMIMAJOR_AXIS":"6824.621","OBJECT_NAME":"STARLINK-1945","GP_ID":"189131543","NORAD_CAT_ID":"46775","RCS_SIZE":"LARGE","OBJECT_TYPE":"PAYLOAD","INCLINATION":"53.0590","MEAN_MOTION":"15.39873198"},{"SEMIMAJOR_AXIS":"6925.333","ELEMENT_SET_NO":"999","OBJECT_NAME":"STARLINK-1946","BSTAR":"0.00004082200000","TLE_LINE2":"2 46776  53.0541 248.1872 0001402  76.0068 284.1076 15.06405184 57381","MEAN_MOTION_DOT":"0.00000327","CENTER_NAME":"EARTH","RA_OF_ASC_NODE":"248.1872","EPHEMERIS_TYPE":"0","MEAN_ELEMENT_THEORY":"SGP4","PERIAPSIS":"546.227","FILE":"3205897","REV_AT_EPOCH":"5738","COUNTRY_CODE":"US","MEAN_MOTION":"15.06405184","OBJECT_TYPE":"PAYLOAD","INCLINATION":"53.0541","GP_ID":"189103935","NORAD_CAT_ID":"46776","RCS_SIZE":"LARGE","LAUNCH_DATE":"2020-10-24","DECAY_DATE":null,"PERIOD":"95.592","REF_FRAME":"TEME","MEAN_ANOMALY":"284.1076","MEAN_MOTION_DDOT":"0.0000000000000","OBJECT_ID":"2020-074AP","ECCENTRICITY":"0.00014020","TLE_LINE1":"1 46776U 20074AP  21310.52969951  .00000327  00000-0  40822-4 0  9998","APOAPSIS":"548.169","SITE":"AFETR","EPOCH":"2021-11-06T12:42:46.037664","TIME_SYSTEM":"UTC","ARG_OF_PERICENTER":"76.0068","CLASSIFICATION_TYPE":"U"},{"TIME_SYSTEM":"UTC","EPOCH":"2021-11-06T11:29:07.317024","SITE":"AFETR","APOAPSIS":"548.202","TLE_LINE1":"1 46779U 20074AS  21310.47855691  .00006133  00000-0  43019-3 0  9991","ECCENTRICITY":"0.00014460","CLASSIFICATION_TYPE":"U","ARG_OF_PERICENTER":"69.0556","MEAN_ANOMALY":"291.0588","DECAY_DATE":null,"LAUNCH_DATE":"2020-10-24","REF_FRAME":"TEME","PERIOD":"95.592","OBJECT_ID":"2020-074AS","MEAN_MOTION_DDOT":"0.0000000000000","INCLINATION":"53.0537","OBJECT_TYPE":"PAYLOAD","MEAN_MOTION":"15.06404069","RCS_SIZE":"LARGE","NORAD_CAT_ID":"46779","GP_ID":"189130042","BSTAR":"0.00043019000000","OBJECT_NAME":"STARLINK-1798","SEMIMAJOR_AXIS":"6925.336","ELEMENT_SET_NO":"999","REV_AT_EPOCH":"5803","COUNTRY_CODE":"US","FILE":"3206165","PERIAPSIS":"546.200","MEAN_ELEMENT_THEORY":"SGP4","RA_OF_ASC_NODE":"223.4135","EPHEMERIS_TYPE":"0","CENTER_NAME":"EARTH","TLE_LINE2":"2 46779  53.0537 223.4135 0001446  69.0556 291.0588 15.06404069 58038","MEAN_MOTION_DOT":"0.00006133"},{"TLE_LINE1":"1 46780U 20074AT  21310.73288141 -.00010400  00000-0 -68092-3 0  9994","ECCENTRICITY":"0.00016420","APOAPSIS":"548.458","SITE":"AFETR","EPOCH":"2021-11-06T17:35:20.953824","TIME_SYSTEM":"UTC","ARG_OF_PERICENTER":"71.8948","CLASSIFICATION_TYPE":"U","MEAN_ANOMALY":"288.2220","LAUNCH_DATE":"2020-10-24","DECAY_DATE":null,"REF_FRAME":"TEME","PERIOD":"95.594","MEAN_MOTION_DDOT":"0.0000000000000","OBJECT_ID":"2020-074AT","MEAN_MOTION":"15.06365126","OBJECT_TYPE":"PAYLOAD","INCLINATION":"53.0545","GP_ID":"189102018","NORAD_CAT_ID":"46780","RCS_SIZE":"LARGE","OBJECT_NAME":"STARLINK-1832","ELEMENT_SET_NO":"999","SEMIMAJOR_AXIS":"6925.455","BSTAR":"-0.00068092000000","CENTER_NAME":"EARTH","MEAN_MOTION_DOT":"-0.00010400","TLE_LINE2":"2 46780  53.0545 222.2754 0001642  71.8948 288.2220 15.06365126 57802","EPHEMERIS_TYPE":"0","RA_OF_ASC_NODE":"222.2754","PERIAPSIS":"546.183","MEAN_ELEMENT_THEORY":"SGP4","COUNTRY_CODE":"US","REV_AT_EPOCH":"5780","FILE":"3205811"},{"BSTAR":"-0.00001795600000","OBJECT_NAME":"STARLINK-1834","ELEMENT_SET_NO":"999","SEMIMAJOR_AXIS":"6925.353","PERIAPSIS":"546.285","MEAN_ELEMENT_THEORY":"SGP4","COUNTRY_CODE":"US","REV_AT_EPOCH":"5790","FILE":"3206165","CENTER_NAME":"EARTH","MEAN_MOTION_DOT":"-0.00000549","TLE_LINE2":"2 46781  53.0547 233.3942 0001347  71.3864 288.7271 15.06398529 57906","RA_OF_ASC_NODE":"233.3942","EPHEMERIS_TYPE":"0","OBJECT_TYPE":"PAYLOAD","INCLINATION":"53.0547","MEAN_MOTION":"15.06398529","GP_ID":"189131044","NORAD_CAT_ID":"46781","RCS_SIZE":"LARGE","MEAN_ANOMALY":"288.7271","DECAY_DATE":null,"PERIOD":"95.592","LAUNCH_DATE":"2020-10-24","REF_FRAME":"TEME","OBJECT_ID":"2020-074AU","MEAN_MOTION_DDOT":"0.0000000000000","SITE":"AFETR","EPOCH":"2021-11-06T11:38:24.304128","TIME_SYSTEM":"UTC","TLE_LINE1":"1 46781U 20074AU  21310.48500352 -.00000549  00000-0 -17956-4 0  9995","ECCENTRICITY":"0.00013470","APOAPSIS":"548.151","ARG_OF_PERICENTER":"71.3864","CLASSIFICATION_TYPE":"U"},{"APOAPSIS":"549.157","ECCENTRICITY":"0.00025630","TLE_LINE1":"1 46782U 20074AV  21310.78820434 -.00014633  00000-0 -96681-3 0  9995","EPOCH":"2021-11-06T18:55:00.854976","TIME_SYSTEM":"UTC","SITE":"AFETR","ARG_OF_PERICENTER":"84.0934","CLASSIFICATION_TYPE":"U","DECAY_DATE":null,"LAUNCH_DATE":"2020-10-24","REF_FRAME":"TEME","PERIOD":"95.596","MEAN_ANOMALY":"276.0347","MEAN_MOTION_DDOT":"0.0000000000000","OBJECT_ID":"2020-074AV","MEAN_MOTION":"15.06344987","INCLINATION":"53.0510","OBJECT_TYPE":"PAYLOAD","NORAD_CAT_ID":"46782","RCS_SIZE":"LARGE","GP_ID":"189101534","ELEMENT_SET_NO":"999","SEMIMAJOR_AXIS":"6925.517","OBJECT_NAME":"STARLINK-1835","BSTAR":"-0.00096681000000","RA_OF_ASC_NODE":"222.0299","EPHEMERIS_TYPE":"0","TLE_LINE2":"2 46782  53.0510 222.0299 0002563  84.0934 276.0347 15.06344987 57809","MEAN_MOTION_DOT":"-0.00014633","CENTER_NAME":"EARTH","FILE":"3205812","REV_AT_EPOCH":"5780","COUNTRY_CODE":"US","MEAN_ELEMENT_THEORY":"SGP4","PERIAPSIS":"545.607"},{"MEAN_MOTION_DDOT":"0.0000000000000","OBJECT_ID":"2020-074AW","MEAN_ANOMALY":"290.8686","DECAY_DATE":null,"REF_FRAME":"TEME","LAUNCH_DATE":"2020-10-24","PERIOD":"95.592","CLASSIFICATION_TYPE":"U","ARG_OF_PERICENTER":"69.2479","APOAPSIS":"548.362","TLE_LINE1":"1 46783U 20074AW  21310.47118417  .00001037  00000-0  88501-4 0  9998","ECCENTRICITY":"0.00016420","EPOCH":"2021-11-06T11:18:30.312288","TIME_SYSTEM":"UTC","SITE":"AFETR","RA_OF_ASC_NODE":"223.4495","EPHEMERIS_TYPE":"0","CENTER_NAME":"EARTH","TLE_LINE2":"2 46783  53.0556 223.4495 0001642  69.2479 290.8686 15.06396272 58039","MEAN_MOTION_DOT":"0.00001037","REV_AT_EPOCH":"5803","COUNTRY_CODE":"US","FILE":"3206165","PERIAPSIS":"546.088","MEAN_ELEMENT_THEORY":"SGP4","OBJECT_NAME":"STARLINK-1851","SEMIMAJOR_AXIS":"6925.360","ELEMENT_SET_NO":"999","BSTAR":"0.00008850100000","NORAD_CAT_ID":"46783","RCS_SIZE":"LARGE","GP_ID":"189130542","MEAN_MOTION":"15.06396272","INCLINATION":"53.0556","OBJECT_TYPE":"PAYLOAD"},{"CLASSIFICATION_TYPE":"U","ARG_OF_PERICENTER":"66.9329","TIME_SYSTEM":"UTC","EPOCH":"2021-11-06T19:21:30.414528","SITE":"AFETR","APOAPSIS":"548.254","ECCENTRICITY":"0.00015040","TLE_LINE1":"1 46784U 20074AX  21310.80660202  .00005985  00000-0  42032-3 0  9994","OBJECT_ID":"2020-074AX","MEAN_MOTION_DDOT":"0.0000000000000","DECAY_DATE":null,"LAUNCH_DATE":"2020-10-24","PERIOD":"95.592","REF_FRAME":"TEME","MEAN_ANOMALY":"293.1819","NORAD_CAT_ID":"46784","RCS_SIZE":"LARGE","GP_ID":"189101696","INCLINATION":"53.0534","OBJECT_TYPE":"PAYLOAD","MEAN_MOTION":"15.06400290","FILE":"3205822","COUNTRY_CODE":"US","REV_AT_EPOCH":"5775","MEAN_ELEMENT_THEORY":"SGP4","PERIAPSIS":"546.171","RA_OF_ASC_NODE":"221.9339","EPHEMERIS_TYPE":"0","MEAN_MOTION_DOT":"0.00005985","TLE_LINE2":"2 46784  53.0534 221.9339 0001504  66.9329 293.1819 15.06400290 57759","CENTER_NAME":"EARTH","BSTAR":"0.00042032000000","SEMIMAJOR_AXIS":"6925.348","ELEMENT_SET_NO":"999","OBJECT_NAME":"STARLINK-1882"},{"BSTAR":"-0.00084460000000","OBJECT_NAME":"STARLINK-1883","SEMIMAJOR_AXIS":"6925.494","ELEMENT_SET_NO":"999","PERIAPSIS":"546.044","MEAN_ELEMENT_THEORY":"SGP4","COUNTRY_CODE":"US","REV_AT_EPOCH":"5776","FILE":"3205825","CENTER_NAME":"EARTH","MEAN_MOTION_DOT":"-0.00012824","TLE_LINE2":"2 46785  53.0551 222.0216 0001899 302.0123  58.0681 15.06352493 57765","RA_OF_ASC_NODE":"222.0216","EPHEMERIS_TYPE":"0","OBJECT_TYPE":"PAYLOAD","INCLINATION":"53.0551","MEAN_MOTION":"15.06352493","GP_ID":"189101738","NORAD_CAT_ID":"46785","RCS_SIZE":"LARGE","MEAN_ANOMALY":"58.0681","DECAY_DATE":null,"REF_FRAME":"TEME","LAUNCH_DATE":"2020-10-24","PERIOD":"95.595","OBJECT_ID":"2020-074AY","MEAN_MOTION_DDOT":"0.0000000000000","SITE":"AFETR","EPOCH":"2021-11-06T19:00:17.512704","TIME_SYSTEM":"UTC","TLE_LINE1":"1 46785U 20074AY  21310.79186936 -.00012824  00000-0 -84460-3 0  9993","ECCENTRICITY":"0.00018990","APOAPSIS":"548.674","ARG_OF_PERICENTER":"302.0123","CLASSIFICATION_TYPE":"U"}];
